{
  "type": "FeatureCollection",
  "features": [
    {
      "type": "Feature",
      "properties": {
        "norad_id": 37836,
        "name": "EUTELSAT 16A",
        "group": "eutelsat",
        "lat": 0.013270111533766327,
        "lon": 3.812555982746558,
        "alt_km": 35785.35087297114,
        "timestamp": "2025-12-25T16:53:14.325474+00:00",
        "meta_object_name": "EUTELSAT 16A",
        "meta_object_id": "2011-057A",
        "meta_epoch": "2025-12-24T23:26:49.113312",
        "meta_mean_motion": 1.00271109,
        "meta_eccentricity": 0.00058413,
        "meta_inclination": 0.0561,
        "meta_ra_of_asc_node": 348.7482,
        "meta_arg_of_pericenter": 286.97,
        "meta_mean_anomaly": 185.7141,
        "meta_ephemeris_type": 0,
        "meta_classification_type": "U",
        "meta_norad_cat_id": 37836,
        "meta_element_set_no": 999,
        "meta_rev_at_epoch": 558,
        "meta_bstar": 0,
        "meta_mean_motion_dot": 1.25e-06,
        "meta_mean_motion_ddot": 0,
        "tle_line1": "1 37836U 11057A   25358.97695733  .00000125  00000+0  00000+0 0  9999",
        "tle_line2": "2 37836   0.0561 348.7482 0005841 286.9700 185.7141  1.00271109  5583"
      },
      "geometry": {
        "type": "Point",
        "coordinates": [
          3.812555982746558,
          0.013270111533766327
        ]
      }
    },
    {
      "type": "Feature",
      "properties": {
        "norad_id": 38992,
        "name": "EUTELSAT 21B",
        "group": "eutelsat",
        "lat": 0.022721556819927435,
        "lon": 9.376204116547814,
        "alt_km": 35786.16920754785,
        "timestamp": "2025-12-25T16:53:14.325486+00:00",
        "meta_object_name": "EUTELSAT 21B",
        "meta_object_id": "2012-062B",
        "meta_epoch": "2025-12-24T23:28:26.457600",
        "meta_mean_motion": 1.00271068,
        "meta_eccentricity": 0.00032446,
        "meta_inclination": 0.0657,
        "meta_ra_of_asc_node": 349.5129,
        "meta_arg_of_pericenter": 289.9649,
        "meta_mean_anomaly": 187.9548,
        "meta_ephemeris_type": 0,
        "meta_classification_type": "U",
        "meta_norad_cat_id": 38992,
        "meta_element_set_no": 999,
        "meta_rev_at_epoch": 4808,
        "meta_bstar": 0,
        "meta_mean_motion_dot": 1.51e-06,
        "meta_mean_motion_ddot": 0,
        "tle_line1": "1 38992U 12062B   25358.97808400  .00000151  00000+0  00000+0 0  9996",
        "tle_line2": "2 38992   0.0657 349.5129 0003244 289.9649 187.9548  1.00271068 48081"
      },
      "geometry": {
        "type": "Point",
        "coordinates": [
          9.376204116547814,
          0.022721556819927435
        ]
      }
    },
    {
      "type": "Feature",
      "properties": {
        "norad_id": 39020,
        "name": "EUTELSAT 70B",
        "group": "eutelsat",
        "lat": 0.07300799122266298,
        "lon": 58.27121933302729,
        "alt_km": 35802.973574292686,
        "timestamp": "2025-12-25T16:53:14.325498+00:00",
        "meta_object_name": "EUTELSAT 70B",
        "meta_object_id": "2012-069A",
        "meta_epoch": "2025-12-25T04:50:18.132000",
        "meta_mean_motion": 1.00271933,
        "meta_eccentricity": 0.00041907,
        "meta_inclination": 0.0618,
        "meta_ra_of_asc_node": 347.771,
        "meta_arg_of_pericenter": 267.2832,
        "meta_mean_anomaly": 341.9806,
        "meta_ephemeris_type": 0,
        "meta_classification_type": "U",
        "meta_norad_cat_id": 39020,
        "meta_element_set_no": 999,
        "meta_rev_at_epoch": 4776,
        "meta_bstar": 0,
        "meta_mean_motion_dot": -2.2e-07,
        "meta_mean_motion_ddot": 0,
        "tle_line1": "1 39020U 12069A   25359.20159875 -.00000022  00000+0  00000+0 0  9996",
        "tle_line2": "2 39020   0.0618 347.7710 0004190 267.2832 341.9806  1.00271933 47765"
      },
      "geometry": {
        "type": "Point",
        "coordinates": [
          58.27121933302729,
          0.07300799122266298
        ]
      }
    },
    {
      "type": "Feature",
      "properties": {
        "norad_id": 39122,
        "name": "EUTELSAT 117 WEST A",
        "group": "eutelsat",
        "lat": -0.029090357270073402,
        "lon": -129.05723466155783,
        "alt_km": 35778.33543703187,
        "timestamp": "2025-12-25T16:53:14.325510+00:00",
        "meta_object_name": "EUTELSAT 117 WEST A",
        "meta_object_id": "2013-012A",
        "meta_epoch": "2025-12-25T06:10:38.820000",
        "meta_mean_motion": 1.00270796,
        "meta_eccentricity": 0.00027534,
        "meta_inclination": 0.0187,
        "meta_ra_of_asc_node": 321.098,
        "meta_arg_of_pericenter": 316.4443,
        "meta_mean_anomaly": 152.344,
        "meta_ephemeris_type": 0,
        "meta_classification_type": "U",
        "meta_norad_cat_id": 39122,
        "meta_element_set_no": 999,
        "meta_rev_at_epoch": 4668,
        "meta_bstar": 0,
        "meta_mean_motion_dot": 8e-08,
        "meta_mean_motion_ddot": 0,
        "tle_line1": "1 39122U 13012A   25359.25739375  .00000008  00000+0  00000+0 0  9995",
        "tle_line2": "2 39122   0.0187 321.0980 0002753 316.4443 152.3440  1.00270796 46685"
      },
      "geometry": {
        "type": "Point",
        "coordinates": [
          -129.05723466155783,
          -0.029090357270073402
        ]
      }
    },
    {
      "type": "Feature",
      "properties": {
        "norad_id": 39163,
        "name": "EUTELSAT 7B",
        "group": "eutelsat",
        "lat": -0.021937942652947216,
        "lon": -5.216041185844268,
        "alt_km": 35769.70013279066,
        "timestamp": "2025-12-25T16:53:14.325522+00:00",
        "meta_object_name": "EUTELSAT 7B",
        "meta_object_id": "2013-022A",
        "meta_epoch": "2025-12-24T23:24:19.351872",
        "meta_mean_motion": 1.00271638,
        "meta_eccentricity": 0.00046087,
        "meta_inclination": 0.0657,
        "meta_ra_of_asc_node": 9.0547,
        "meta_arg_of_pericenter": 313.3925,
        "meta_mean_anomaly": 129.3681,
        "meta_ephemeris_type": 0,
        "meta_classification_type": "U",
        "meta_norad_cat_id": 39163,
        "meta_element_set_no": 999,
        "meta_rev_at_epoch": 4620,
        "meta_bstar": 0,
        "meta_mean_motion_dot": 6.9e-07,
        "meta_mean_motion_ddot": 0,
        "tle_line1": "1 39163U 13022A   25358.97522398  .00000069  00000+0  00000+0 0  9991",
        "tle_line2": "2 39163   0.0657   9.0547 0004608 313.3925 129.3681  1.00271638 46201"
      },
      "geometry": {
        "type": "Point",
        "coordinates": [
          -5.216041185844268,
          -0.021937942652947216
        ]
      }
    },
    {
      "type": "Feature",
      "properties": {
        "norad_id": 39612,
        "name": "EXPRESS-AT1",
        "group": "eutelsat",
        "lat": 0.013408918901514293,
        "lon": 43.7482716266448,
        "alt_km": 35785.2019783117,
        "timestamp": "2025-12-25T16:53:14.325542+00:00",
        "meta_object_name": "EXPRESS-AT1",
        "meta_object_id": "2014-010A",
        "meta_epoch": "2025-12-25T01:46:38.582688",
        "meta_mean_motion": 1.0027131,
        "meta_eccentricity": 8.829e-05,
        "meta_inclination": 0.0118,
        "meta_ra_of_asc_node": 294.5388,
        "meta_arg_of_pericenter": 184.5356,
        "meta_mean_anomaly": 57.4217,
        "meta_ephemeris_type": 0,
        "meta_classification_type": "U",
        "meta_norad_cat_id": 39612,
        "meta_element_set_no": 999,
        "meta_rev_at_epoch": 4307,
        "meta_bstar": 0,
        "meta_mean_motion_dot": 1e-06,
        "meta_mean_motion_ddot": 0,
        "tle_line1": "1 39612U 14010A   25359.07405767  .00000100  00000+0  00000+0 0  9996",
        "tle_line2": "2 39612   0.0118 294.5388 0000882 184.5356  57.4217  1.00271310 43077"
      },
      "geometry": {
        "type": "Point",
        "coordinates": [
          43.7482716266448,
          0.013408918901514293
        ]
      }
    },
    {
      "type": "Feature",
      "properties": {
        "norad_id": 39613,
        "name": "EXPRESS-AT2",
        "group": "eutelsat",
        "lat": 0.008535229990400284,
        "lon": 127.61418604462072,
        "alt_km": 35791.61587517537,
        "timestamp": "2025-12-25T16:53:14.325579+00:00",
        "meta_object_name": "EXPRESS-AT2",
        "meta_object_id": "2014-010B",
        "meta_epoch": "2025-12-25T05:13:13.086912",
        "meta_mean_motion": 1.00271893,
        "meta_eccentricity": 0.00015864,
        "meta_inclination": 0.0164,
        "meta_ra_of_asc_node": 293.9073,
        "meta_arg_of_pericenter": 338.8079,
        "meta_mean_anomaly": 39.4318,
        "meta_ephemeris_type": 0,
        "meta_classification_type": "U",
        "meta_norad_cat_id": 39613,
        "meta_element_set_no": 999,
        "meta_rev_at_epoch": 4275,
        "meta_bstar": 0,
        "meta_mean_motion_dot": -2.6e-06,
        "meta_mean_motion_ddot": 0,
        "tle_line1": "1 39613U 14010B   25359.21751258 -.00000260  00000+0  00000+0 0  9990",
        "tle_line2": "2 39613   0.0164 293.9073 0001586 338.8079  39.4318  1.00271893 42753"
      },
      "geometry": {
        "type": "Point",
        "coordinates": [
          127.61418604462072,
          0.008535229990400284
        ]
      }
    }
  ]
}